YAMAL 202
1 28089U 03053A   26282.26933936 -.00000086  00000+0  00000+0 0  9992
2 28089   6.6234  69.5017 0005140 138.2665  70.6734  1.00272130 83845
EXPRESS-AM44
1 33595U 09007A   26282.30608619 -.00000097  00000+0  00000+0 0  9999
2 33595   3.7509  76.9145 0003496 126.9070 273.3275  1.00271640 53435
LUCH-5A
1 37951U 11074B   26282.22475113 -.00000052  00000+0  00000+0 0  9999
2 37951   9.0381  72.1093 0004434 142.4805  51.3203  1.00275235 54197
LUCH-5B
1 38977U 12061A   26282.16247890 -.00000143  00000+0  00000+0 0  9998
2 38977  10.7272  48.7238 0006615 176.6726 194.5653  1.00271052 50758
YAMAL 300K
1 38978U 12061B   26282.05943179  .00000060  00000+0  00000+0 0  9997
2 38978   0.0087 177.6038 0000512 312.1220  92.3293  1.00275724 50778
YAMAL 402
1 39022U 12070A   26282.17660564  .00000075  00000+0  00000+0 0  9991
2 39022   1.5523  82.5227 0003520 116.3750 297.4013  1.00272915 50540
RADUGA-1M 3
1 39375U 13062A   26282.10137863  .00000146  00000+0  00000+0 0  9997
2 39375   6.2463  70.8883 0001638 302.4841  75.8100  1.00277404 47258
EXPRESS-AM5
1 39487U 13077A   26282.26474601 -.00000291  00000+0  00000+0 0  9990
2 39487   0.0203 244.4191 0002476 240.4863 128.3427  1.00270133 47509
EXPRESS-AT1
1 39612U 14010A   26282.11004535 -.00000146  00000+0  00000+0 0  9996
2 39612   0.5457  84.0556 0004698  97.2079 315.0044  1.00313849 45963
EXPRESS-AT2
1 39613U 14010B   26282.10553866  .00000066  00000+0  00000+0 0  9992
2 39613   0.0210 225.5280 0000317 268.4526 337.7617  1.00273623 45642
LUCH-5V
1 39727U 14023A   26281.97066241 -.00000277  00000+0  00000+0 0  9997
2 39727   5.4130  68.4968 0003027 166.7755 226.5425  1.00270883 45502
YAMAL 401
1 40345U 14082A   26282.11229869 -.00000241  00000+0  00000+0 0  9995
2 40345   0.0118 215.3352 0000030 197.3112  95.4878  1.00273982 43062
EXPRESS-AM7
1 40505U 15012A   26282.24489926  .00000000  00000+0  00000+0 0  9995
2 40505   0.0184 184.8442 0003133  17.0674 304.1022  1.00271722 42151
EXPRESS-AM8
1 40895U 15048A   26282.30547953 -.00000122  00000+0  00000+0 0  9994
2 40895   0.0198 233.8785 0000095 221.1053  18.9421  1.00272391 40497
ELEKTRO-L 2
1 41105U 15074A   26282.23406588 -.00000124  00000+0  00000+0 0  9990
2 41105   6.9758  69.0767 0002536 199.6133 178.9028  1.00270719 39656
EXPRESS-AMU1
1 41191U 15082A   26282.24385926  .00000144  00000+0  00000+0 0  9998
2 41191   0.0130 243.7865 0002673 326.3309 291.6782  1.00274788 39410
YAMAL 601
1 44307U 19031A   26282.17539229  .00000108  00000+0  00000+0 0  9997
2 44307   0.0033 188.8303 0002412   9.6937 291.4378  1.00273181 27073
ELEKTRO-L 3
1 44903U 19095A   26282.23588589 -.00000183  00000+0  00000+0 0  9993
2 44903   0.0524 281.1508 0003071 237.0697 298.9259  0.99421171 24849
EXPRESS 103
1 45985U 20053A   26282.05878023 -.00000293  00000+0  00000+0 0  9997
2 45985   0.0223 252.1994 0000654 257.6243 345.5521  1.00271761 22796
EXPRESS 80
1 45986U 20053B   26263.15064726 -.00000146  00000+0  00000+0 0  9992
2 45986   0.0271 170.2364 0064633  63.5597 259.7327  1.00286177 22599
EXPRESS AMU-7
1 50001U 21123A   26282.26569935 -.00000254  00000+0  00000+0 0  9990
2 50001   0.0204 251.0986 0000161 210.8201 156.6492  1.00272936 17682
EXPRESS AMU-3
1 50002U 21123B   26281.66580775 -.00000335  00000+0  00000+0 0  9999
2 50002   0.0252 245.6644 0000143 284.1522 190.1992  1.00273663  8176
ELEKTRO-L 4
1 55506U 23016A   26281.49188867 -.00000071  00000+0  00000+0 0  9990
2 55506   0.1066  68.8384 0002119 136.3975 154.7690  1.00274986 13474
LUCH-5X (OLYMP-K 2)
1 55841U 23031A   26280.60993837  .00000017  00000+0  00000+0 0  9991
2 55841   0.0210 112.2306 0001204  40.0135 145.5867  1.00272534 13063
ELEKTRO-L 5
1 67756U 26028A   26281.74047098 -.00000110  00000+0  00000+0 0  9998
2 67756   0.0632  54.7373 0001575 127.3573 177.9205  1.00271337  2387
RADUGA 1
1 08513U 75123A   26282.10718534 -.00000001  00000+0  00000+0 0  9994
2 08513   2.5139 264.1949 0005692 307.6514 268.7464  1.00268272195956
RADUGA 2
1 09416U 76092A   26282.10943868 -.00000117  00000+0  00000+0 0  9991
2 09416   3.1891 267.6713 0028437  40.7449 184.4814  1.00298637130480
RADUGA 3
1 10159U 77071A   26282.04244506 -.00000317  00000+0  00000+0 0  9993
2 10159   3.8306 271.8622 0010113 307.8429 270.7957  1.00338913178185
EKRAN 2
1 10365U 77092A   26282.10891867 -.00000076  00000+0  00000+0 0  9992
2 10365   3.9500 273.1385 0039109   7.1993 209.8754  1.00216064135996
RADUGA 4
1 10987U 78073A   26282.17738564  .00000041  00000+0  00000+0 0  9994
2 10987   4.5026 277.2437 0010928  30.3456 194.0211  1.00200503120740
EKRAN 3
1 11273U 79015A   26282.04270506 -.00000320  00000+0  00000+0 0  9994
2 11273   4.8397 280.3930 0041855   9.3794 202.1814  1.00285934136153
RADUGA 5
1 11343U 79035A   26282.04001838 -.00000206  00000+0  00000+0 0  9997
2 11343   5.0137 281.2061 0004026 242.7142 313.2937  1.00264891130502
GORIZONT 2
1 11440U 79062A   26282.17738564  .00000026  00000+0  00000+0 0  9991
2 11440   5.4613 284.7876 0006792 338.2265 238.4119  1.00274918139166
EKRAN 4
1 11561U 79087A   26282.04010505 -.00000203  00000+0  00000+0 0  9994
2 11561   5.3175 283.6388 0009425 244.3178 309.8303  1.00227434 48511
EKRAN 2 DEB
1 11581U 77092H   26282.04270506 -.00000329  00000+0  00000+0 0  9998
2 11581   3.8538 272.4679 0019457 279.0467 300.4187  1.00366194105507
GORIZONT 3
1 11648U 79105A   26282.17357228  .00000126  00000+0  00000+0 0  9994
2 11648   5.6563 286.7655 0012703 277.0322 276.3518  1.00260530123625
RADUGA 6
1 11708U 80016A   26282.17391896  .00000122  00000+0  00000+0 0  9999
2 11708   5.4421 285.5611 0003063 322.2140 234.1761  1.00275381123309
RADUGA 7
1 12003U 80081A   26282.23189920 -.00000215  00000+0  00000+0 0  9994
2 12003   5.6788 288.2208 0012511 318.0705 189.2090  1.00279761124454
EKRAN 6
1 12120U 80104A   26282.10753200 -.00000040  00000+0  00000+0 0  9990
2 12120   5.9777 289.6956 0004516  62.0123 131.0005  1.00320365128559
EKRAN 7
1 12564U 81061A   26282.10831200 -.00000053  00000+0  00000+0 0  9996
2 12564   6.2660 292.1605 0003881  34.1960 160.3153  1.00215635130655
RADUGA 9
1 12618U 81069A   26282.17391896  .00000120  00000+0  00000+0 0  9997
2 12618   6.3301 292.6559 0001620 257.8299 291.6049  1.00227538 48485
RADUGA 10
1 12897U 81102A   26282.11082535 -.00000196  00000+0  00000+0 0  9999
2 12897   6.4505 293.9936 0003949 271.8299 294.9518  1.00287162118480
EKRAN 2 DEB
1 12996U 77092J   26282.22674970  .00000089  00000+0  00000+0 0  9994
2 12996   4.0186 273.3441 0024163 297.1081  85.7552  1.00049133 85653
EKRAN 9
1 13554U 82093A   26282.10727200 -.00000008  00000+0  00000+0 0  9996
2 13554   6.8392 298.9268 0027151  10.8481 171.3154  1.00209477121141
GORIZONT 6
1 13624U 82103A   26282.30312350  .00000094  00000+0  00000+0 0  9998
2 13624   7.0989 301.1707 0003571 337.0792  61.0934  1.00348135122099
RADUGA 12
1 13974U 83028A   26282.10753200 -.00000039  00000+0  00000+0 0  9994
2 13974   7.9678 305.5606 0002064 325.6347 211.4724  1.00283047170521
EKRAN 11
1 14377U 83100A   26281.54421773 -.00000255  00000+0  00000+0 0  9997
2 14377   7.5360 303.8255 0004276 321.0375  38.7788  1.00223096 48513
RADUGA 14
1 14725U 84016A   26282.04036505 -.00000231  00000+0  00000+0 0  9996
2 14725   8.3561 310.1448 0001705 219.0005 309.6055  1.00274797119247
GORIZONT 9
1 14940U 84041A   26282.04157838 -.00000281  00000+0  00000+0 0  9991
2 14940   8.5389 311.6817 0006397 295.4930 238.4967  1.00244211123085
RADUGA 15
1 15057U 84063A   26282.24307926  .00000115  00000+0  00000+0 0  9997
2 15057   8.5207 311.1347 0003609 243.9697 301.1139  1.00212990142245
GORIZONT 10
1 15144U 84078A   26281.77577236  .00000070  00000+0  00000+0 0  9990
2 15144   8.6836 312.7203 0003864 328.5431 205.7784  1.00285576155719
GORIZONT 11
1 15484U 85007A   26282.31475341 -.00000318  00000+0  00000+0 0  9991
2 15484   8.9608 314.8985 0004322 268.4176 215.4900  1.00197224153778
RADUGA 16
1 15946U 85070A   26282.30397825  .00000090  00000+0  00000+0 0  9999
2 15946   9.2229 316.1425 0003358 300.4336  81.4347  1.00346221123373
RADUGA 17
1 16250U 85107A   26282.24169258  .00000087  00000+0  00000+0 0  9995
2 16250   9.4198 317.7126 0014245 241.7086 289.0419  1.00159613152814
GORIZONT 12
1 16769U 86044A   26282.04435172 -.00000370  00000+0  00000+0 0  9996
2 16769   9.8733 320.4660 0005376 310.0081 229.9887  1.00244773148406
RADUGA 21
1 18631U 87100A   26282.01115824 -.00000322  00000+0  00000+0 0  9993
2 18631  11.1466 324.4954 0001995 293.0595  63.3030  1.00320232142227
GORIZONT 16
1 19397U 88071A   26282.03983301 -.00000389  00000+0  00000+0 0  9999
2 19397  11.3936 329.0878 0010557  87.6783  98.0807  0.99978590139379
RADUGA 22
1 19596U 88095A   26281.81380197  .00000084  00000+0  00000+0 0  9996
2 19596  11.4140 329.4093 0005778 211.8948 151.8163  1.00219095122796
RADUGA 23
1 19928U 89030A   26281.82362596 -.00000052  00000+0  00000+0 0  9995
2 19928  11.6755 331.2407 0020526 214.8244 198.0404  1.00180256135992
GORIZONT 19
1 20263U 89081A   26282.24559260  .00000109  00000+0  00000+0 0  9990
2 20263  11.9555 332.7380 0006224 283.1463 253.8634  1.00224394 48488
RADUGA 24
1 20367U 89098A   26281.80925328 -.00000286  00000+0  00000+0 0  9993
2 20367  12.3835 332.9918 0003868 294.3121 136.2650  1.00222839134114
RADUGA 25
1 20499U 90016A   26282.25853699 -.00000017  00000+0  00000+0 0  9994
2 20499  12.2059 333.9287 0006413 227.8669 149.8962  1.00167766134050
GORIZONT 20
1 20659U 90054A   26281.80628483 -.00000293  00000+0  00000+0 0  9991
2 20659  12.5728 335.2697 0006638 251.8361 174.5430  1.00297442132833
GORIZONT 21
1 20923U 90094A   26282.17851230  .00000000  00000+0  00000+0 0  9993
2 20923  12.6302 335.9684 0007671 271.8910 258.7768  1.00151559131598
GORIZONT 22
1 20953U 90102A   26282.03636039 -.00000375  00000+0  00000+0 0  9995
2 20953  12.6217 336.4357 0004790 343.8137 197.7604  1.00215278131511
RADUGA 26
1 21016U 90112A   26281.76151159  .00000038  00000+0  00000+0 0  9996
2 21016  12.7378 337.1144 0002460 130.3588 240.0827  1.00297395131401
RADUGA-1 2
1 21038U 90116A   26281.73607747  .00000039  00000+0  00000+0 0  9991
2 21038  12.7784 337.1373 0003800 149.4600 213.1191  1.00230638 48482
RADUGA 27
1 21132U 91014A   26282.03636039 -.00000370  00000+0  00000+0 0  9993
2 21132  13.2333 335.9968 0001819 282.4466 259.8857  1.00292662130455
RADUGA 28
1 21821U 91087A   26282.13239252 -.00000253  00000+0  00000+0 0  9995
2 21821  13.2815 340.2251 0005290 206.9176 325.8001  1.00358569127466
EKRAN 20
1 22210U 92074A   26281.80182955 -.00000167  00000+0  00000+0 0  9999
2 22210  13.6225 343.4655 0005380 231.1147 170.1810  1.00327166 48515
GORIZONT 27
1 22245U 92082A   26282.01765828 -.00000241  00000+0  00000+0 0  9999
2 22245  13.6470 343.1359 0011119  24.3658 349.0099  1.00206481128262
RADUGA 29
1 22557U 93013A   26281.66548148 -.00000344  00000+0  00000+0 0  9998
2 22557  13.7759 344.2647 0003776 201.8015 204.5522  1.00288790122825
RADUGA 30
1 22836U 93062A   26281.82660682 -.00000124  00000+0  00000+0 0  9994
2 22836  13.9644 346.2954 0005405 317.5878  86.8853  1.00258695 47146
GORIZONT 29
1 22907U 93072A   26275.89915300  .00000015  00000+0  00000+0 0  9992
2 22907  13.9420 346.5339 0010622 358.0525   0.4472  1.00155562120244
RADUGA-1 3
1 22981U 94008A   26281.76302207 -.00000331  00000+0  00000+0 0  9995
2 22981  14.1246 347.3517 0002464 247.3830 156.9547  1.00290643119626
RADUGA 31
1 23010U 94012A   26281.81796198  .00000100  00000+0  00000+0 0  9999
2 23010  14.0915 347.3776 0001458 193.4635 175.0430  1.00267013119498
GORIZONT 30
1 23108U 94030A   26282.25965719 -.00000006  00000+0  00000+0 0  9999
2 23108  14.0142 347.3338 0005913 281.2893  81.0905  1.00162428118603
EXPRESS 1
1 23319U 94067A   26281.72848436 -.00000366  00000+0  00000+0 0  9999
2 23319  14.5507   1.1389 0007026 249.2833 151.6824  0.99827724116711
ELEKTRO (GOMS 1)
1 23327U 94069A   26281.83173997 -.00000188  00000+0  00000+0 0  9997
2 23327  14.4379 348.4119 0009933 267.7465 142.9566  1.00271258117017
LUCH
1 23426U 94082A   26281.33623370  .00000083  00000+0  00000+0 0  9995
2 23426  14.7360 353.7075 0007267 221.5413 138.4057  1.00183554116395
RADUGA 32
1 23448U 94087A   26281.82660666 -.00000129  00000+0  00000+0 0  9999
2 23448  14.2773 350.1148 0009706 266.7128 134.4107  1.00261084134025
LUCH-1
1 23680U 95054A   26281.82213562 -.00000098  00000+0  00000+0 0  9996
2 23680  15.0510 358.3248 0006421 165.4213 222.2763  1.00272272113496
GORIZONT 31
1 23775U 96005A   26281.94873565 -.00000216  00000+0  00000+0 0  9998
2 23775  14.3951 353.7384 0022459 251.0846  97.8942  0.99900306112188
GORIZONT 32
1 23880U 96034A   26281.72245617 -.00000382  00000+0  00000+0 0  9998
2 23880  14.3768 354.1103 0008480 358.1759  41.3293  1.00167721111175
EXPRESS 2
1 24435U 96058A   26281.76747979 -.00000341  00000+0  00000+0 0  9998
2 24435  14.5553 353.4670 0009201 349.7814  52.6733  1.00258502109952
RADUGA-1 4
1 25642U 99010A   26281.74836502 -.00000039  00000+0  00000+0 0  9993
2 25642  15.6664   0.6574 0006762 278.2808  75.7066  1.00191418101083
YAMAL 102
1 25897U 99047B   26281.50597520 -.00000285  00000+0  00000+0 0  9996
2 25897  13.7811  11.8358 0001385 316.9170  19.1513  1.00000261 99125
GORIZONT 33
1 26372U 00029A   26279.91570845  .00000056  00000+0  00000+0 0  9995
2 26372  13.9349   5.9669 0003776 243.0242 112.0635  1.00215089 96544
RADUGA-1 5
1 26477U 00049A   26279.68924191  .00000035  00000+0  00000+0 0  9991
2 26477  14.0305   7.2225 0000680  99.1310 215.2034  1.00216506 95536
YAMAL 201
1 28094U 03053B   26281.89855544 -.00000251  00000+0  00000+0 0  9998
2 28094   9.8684  54.3248 0006989 143.6809 234.0662  1.00286732 86027
RADUGA-1 7
1 28194U 04010A   26273.98075022  .00000082  00000+0  00000+0 0  9990
2 28194  13.8002  19.8832 0005679 234.0962 125.6125  1.00262678 82479
EKRAN 2 DEB
1 29014U 77092K   26281.99766878 -.00000379  00000+0  00000+0 0  9998
2 29014   3.8470 272.7169 0020753 349.3013 236.4663  1.00131638 48414
EXPRESS-AM33
1 32478U 08003A   26282.23675256 -.00000023  00000+0  00000+0 0  9995
2 32478   5.0873  73.8495 0015011 173.9546 214.4448  1.00248724 54888
RADUGA-1 8
1 34264U 09010A   26281.84489326 -.00000088  00000+0  00000+0 0  9997
2 34264  12.3326  40.6110 0010024  29.4229 335.2261  0.99815199 64312
ELEKTRO-L 1 (GOMS 2)
1 37344U 11001A   26282.18203297  .00000118  00000+0  00000+0 0  9994
2 37344   9.9417  53.3110 0003082  43.0156 194.0876  1.00192852 57621
LUCH DEB
1 44582U 94082G   26281.81900198  .00000014  00000+0  00000+0 0  9994
2 44582  14.5822 353.1167 0015719 115.6741 252.7135  1.00697401 47397
EKRAN 2 DEB
1 59987U 77092N   26281.95852902  .00000134  00000+0  00000+0 0  9998
2 59987   3.8398 272.3468 0013497 235.5436 248.2433  1.00195650 64255
